{
  "norad_id": 59585,
  "name": "STARLINK-31702",
  "history": [
    {
      "epoch": "2026-03-28T19:32:26.493792",
      "apogee_km": 484.7522133087632,
      "perigee_km": 481.2449380251928,
      "latitude_deg": -8.961264140535675,
      "longitude_deg": -143.3372291198466,
      "semi_major_axis_km": 6861.135575666977,
      "eccentricity": 0.00025559,
      "inclination_deg": 43.0042,
      "raan_deg": 261.3306,
      "arg_perigee_deg": 284.5474,
      "mean_anomaly_deg": 75.5094,
      "mean_motion_rev_day": 15.27596872
    }
  ]
}