{"fetched_at":"2026-03-30T06:02:59Z","count":15439,"tles":[{"name":"STARLINK-31702","line1":"1 59585U 24076X   26087.81419553  .00004731  00000+0  18125-3 0  9994","line2":"2 59585  43.0042 261.3306 0002555 284.5474  75.5094 15.27596872109427","category":"Starlink"}]}